[{"OBJECT_NAME":"STARLINK-4528","OBJECT_ID":"2022-097M","EPOCH":"2026-03-09T13:23:16.194912","MEAN_MOTION":15.08839476,"ECCENTRICITY":0.0001366,"INCLINATION":53.217,"RA_OF_ASC_NODE":124.7117,"ARG_OF_PERICENTER":98.9871,"MEAN_ANOMALY":261.1276,"EPHEMERIS_TYPE":0,"CLASSIFICATION_TYPE":"U","NORAD_CAT_ID":53399,"ELEMENT_SET_NO":999,"REV_AT_EPOCH":19849,"BSTAR":1.408e-5,"MEAN_MOTION_DOT":-6.4e-7,"MEAN_MOTION_DDOT":0},{"OBJECT_NAME":"SL-24 PLAT","OBJECT_ID":"2014-033AR","EPOCH":"2026-03-09T22:47:27.152448","MEAN_MOTION":15.0919716,"ECCENTRICITY":0.00052059,"INCLINATION":98.0981,"RA_OF_ASC_NODE":61.9435,"ARG_OF_PERICENTER":212.2329,"MEAN_ANOMALY":147.8581,"EPHEMERIS_TYPE":0,"CLASSIFICATION_TYPE":"U","NORAD_CAT_ID":40049,"ELEMENT_SET_NO":999,"REV_AT_EPOCH":63724,"BSTAR":0.00046923352,"MEAN_MOTION_DOT":7.393e-5,"MEAN_MOTION_DDOT":0}]
